SatCatId,ObjectName,LaunchYear,OrbitalPeriod,LaunchMass,StatusCode,Inclination,Status,UcsData,OrbitClassEstimated,LaunchSiteCountry,Owner,UseType,Purpose,LaunchVehicleClass,TLE1,TLE2,MeanMotion,Eccentricity,OrbitClass
43252,IRIDIUM 140,2018,100.4,860.0,+,86.39,Active,1,LEO,USA,USA,Commercial/Government,Communications,Falcon,1 43252U 18030D   23027.90709349  .00000330  00000+0  11076-3 0  9996,2 43252  86.3943  87.1420 0002310  88.2063 271.9397 14.34217341252991,14.34217341,0.000231,LEO
43253,IRIDIUM 145,2018,100.4,860.0,+,86.39,Active,1,LEO,USA,USA,Commercial/Government,Communications,Falcon,1 43253U 18030E   23027.68509072  .00000327  00000+0  10975-3 0  9996,2 43253  86.3944  87.2102 0001898  81.0945 279.0466 14.34217195252893,14.34217195,0.0001898,LEO
43254,IRIDIUM 146,2018,100.4,860.0,+,86.39,Active,1,LEO,USA,USA,Commercial/Government,Communications,Falcon,1 43254U 18030F   23027.66607071  .00000338  00000+0  11377-3 0  9992,2 43254  86.3943  87.2341 0001970  88.8146 271.3275 14.34217797252900,14.34217797,0.000197,LEO
43255,IRIDIUM 148,2018,100.4,860.0,+,86.39,Active,1,LEO,USA,USA,Commercial/Government,Communications,Falcon,1 43255U 18030G   23027.70412593  .00000315  00000+0  10539-3 0  9995,2 43255  86.3943  87.2432 0001983  98.2460 261.8961 14.34215775252944,14.34215775,0.0001983,LEO
43256,IRIDIUM 142,2018,100.4,860.0,+,86.39,Active,1,LEO,USA,USA,Commercial/Government,Communications,Falcon,1 43256U 18030H   23027.88170466  .00000341  00000+0  11469-3 0  9997,2 43256  86.3941  87.1029 0002126  94.2398 265.9041 14.34215533252935,14.34215533,0.0002126,LEO
43257,IRIDIUM 150,2018,100.4,860.0,+,86.39,Active,1,LEO,USA,USA,Commercial/Government,Communications,Falcon,1 43257U 18030J   23027.71046954  .00000330  00000+0  11061-3 0  9990,2 43257  86.3944  87.2508 0002280  90.1011 270.0446 14.34216400252930,14.342164,0.000228,LEO
43258,IRIDIUM 143,2018,100.4,860.0,+,86.39,Active,1,LEO,USA,USA,Commercial/Government,Communications,Falcon,1 43258U 18030K   23027.90073794  .00000324  00000+0  10868-3 0  9991,2 43258  86.3947  87.2141 0002097  88.2045 271.9391 14.34217965252899,14.34217965,0.0002097,LEO
43259,GAOFEN 1-02,2018,97.52,805.0,+,97.88,Active,1,LEO,PRC,China,Government,Earth Observation,Long March,1 43259U 18031A   23028.16561104  .00001758  00000+0  25920-3 0  9996,2 43259  97.8790 104.6552 0004081  19.5288 340.6074 14.76552637260305,14.76552637,0.0004081,LEO
43260,GAOFEN 1-03,2018,97.52,805.0,+,97.88,Active,1,LEO,PRC,China,Government,Earth Observation,Long March,1 43260U 18031B   23028.14402123  .00001798  00000+0  26491-3 0  9999,2 43260  97.8787 104.5887 0006971  77.8537 282.3442 14.76550189260296,14.76550189,0.0006971,LEO
43262,GAOFEN 1-04,2018,97.53,805.0,+,97.88,Active,1,LEO,PRC,China,Government,Earth Observation,Long March,1 43262U 18031D   23028.18714903  .00001315  00000+0  19568-3 0  9999,2 43262  97.8801 104.6855 0005841  41.1552 319.0286 14.76544263260297,14.76544263,0.0005841,LEO
43271,SUPERBIRD-B3,2018,1436.1,5348.0,+,0.0,Active,1,GSO,French Guiana,Japan,Commercial/Military,Communications,Ariane,1 43271U 18033A   23027.67688330 -.00000094  00000+0  00000+0 0  9999,2 43271   0.0035 233.1883 0001234  82.0919 217.0343  1.00271544 17657,1.00271544,0.0001234,GEO
43272,HYLAS 4,2018,1436.1,4050.0,+,0.06,Active,1,GSO,French Guiana,UK,Commercial,Communications,Ariane,1 43272U 18033B   23027.47060338 -.00000235  00000+0  00000+0 0  9997,2 43272   0.0642 264.1216 0001410  53.7761 304.4719  1.00271245 17670,1.00271245,0.000141,GEO
43275,YAOGAN-31 A,2018,107.04,-1.0,+,63.4,Active,1,LEO,PRC,China,Military,Earth Observation,Long March,1 43275U 18034A   23028.18295451 -.00000090  00000+0  00000+0 0  9995,2 43275  63.4027  28.9677 0164250   4.0404 356.1923 13.45247944235938,13.45247944,0.016425,LEO
43276,YAOGAN-31 B,2018,107.04,-1.0,+,63.4,Active,1,LEO,PRC,China,Military,Earth Observation,Long March,1 43276U 18034B   23028.18316085 -.00000090  00000+0  00000+0 0  9993,2 43276  63.4031  28.9537 0164529   3.9886 356.2413 13.45248549235937,13.45248549,0.0164529,LEO
43277,YAOGAN-31 C,2018,107.04,-1.0,+,63.4,Active,1,LEO,PRC,China,Military,Earth Observation,Long March,1 43277U 18034C   23028.18300066 -.00000090  00000+0  00000+0 0  9996,2 43277  63.4042  28.2037 0164565   3.8830 356.3436 13.45248855235954,13.45248855,0.0164565,LEO
43279,WEINA 1B,2018,107.05,5.0,+,63.4,Active,1,LEO,PRC,China,Government,Technology Development,Long March,1 43279U 18034E   23028.21268371 -.00000090  00000+0  00000+0 0  9994,2 43279  63.4039  29.0732 0164295   4.9122 355.3470 13.45207751235934,13.45207751,0.0164295,LEO
43286,IRNSS-1I,2018,1436.06,1425.0,+,28.75,Active,1,GSO,India,India,Government,Navigation (Global or Regional Positioning),PSLV,1 43286U 18035A   23025.76685411  .00000074  00000+0  00000+0 0  9999,2 43286  28.7498  93.7530 0021851 186.4334 175.6842  1.00274394 17669,1.00274394,0.0021851,GSO
43339,USA 283,2018,1436.11,-1.0,+,0.0,Active,1,GSO,USA,USA,Military,Communications,Atlas,1 43339U 18036A   23026.70022733 -.00000321  00000+0  00000+0 0  9992,2 43339   0.0091 126.3658 0000498 210.3778 175.1288  1.00270181  6338,1.00270181,4.98e-05,GEO
43432,COSMOS 2526,2018,1436.05,3000.0,+,0.03,Active,1,GSO,Kazakhstan,Russia/USSR,Commercial/Military,Communications,Proton,1 43432U 18037A   23028.04563377 -.00000345  00000+0  00000+0 0  9996,2 43432   0.0288 107.0546 0000493 277.1745 247.2934  1.00270022 17562,1.00270022,4.93e-05,GEO
43437,SENTINEL-3B,2018,100.93,2300.0,+,98.63,Active,1,LEO,Russia,ESA,Government,Earth Observation,Rokot,1 43437U 18039A   23027.79956261  .00000156  00000+0  82424-4 0  9996,2 43437  98.6312  96.8855 0000652  73.5915 286.5337 14.26730135247825,14.26730135,6.52e-05,LEO
43439,ZHUHAI-1 OHS-01,2018,94.43,90.0,+,97.21,Active,1,LEO,PRC,China,Commercial,Earth Observation,Long March,1 43439U 18040A   23028.15852916  .00014160  00000+0  56888-3 0  9997,2 43439  97.2124  83.6332 0010995 330.2491  91.9950 15.24992667263905,15.24992667,0.0010995,LEO
43440,ZHUHAI-1 OVS-02,2018,94.42,55.0,+,97.22,Active,1,LEO,PRC,China,Commercial,Earth Observation,Long March,1 43440U 18040B   23028.14286100  .00013822  00000+0  55476-3 0  9990,2 43440  97.2155  83.8876 0010143 343.9435  71.5090 15.25038548263910,15.25038548,0.0010143,LEO
43441,ZHUHAI-1 OHS-02,2018,94.42,90.0,+,97.23,Active,1,LEO,PRC,China,Commercial,Earth Observation,Long March,1 43441U 18040C   23028.12798744  .00014178  00000+0  56828-3 0  9998,2 43441  97.2278  86.5107 0011452 358.3371  85.5810 15.25064969263918,15.25064969,0.0011452,LEO
43442,ZHUHAI-1 OHS-03,2018,94.35,90.0,+,97.21,Active,1,LEO,PRC,China,Commercial,Earth Observation,Long March,1 43442U 18040D   23028.12141287  .00017164  00000+0  66433-3 0  9994,2 43442  97.2085  83.8379 0005215  10.9552  72.9969 15.26238894263958,15.26238894,0.0005215,LEO
43443,ZHUHAI-1 OHS-04,2018,94.43,90.0,+,97.22,Active,1,LEO,PRC,China,Commercial,Earth Observation,Long March,1 43443U 18040E   23028.11530306  .00013760  00000+0  55395-3 0  9991,2 43443  97.2175  84.5487 0005633 337.4418 106.3704 15.24970751263917,15.24970751,0.0005633,LEO
43445,USA 285,2018,1410.22,-1.0,+,4.08,Active,0,GSO,USA,USA,Unknown,Unknown,Atlas,1 43445U 18036E   23027.51409868  .00000029  00000+0  00000+0 0  9992,2 43445   4.0780  81.1502 0008594 119.1673 296.1202  1.02111910 14319,1.0211191,0.0008594,GSO
43446,USA 286,2018,1410.08,-1.0,+,4.08,Active,1,GSO,USA,USA,Military,Technology Development,Atlas,1 43446U 18036F   23027.47004017 -.00000131  00000+0  00000+0 0  9990,2 43446   4.0758  81.0978 0008322 114.9733 326.8869  1.02121797 14291,1.02121797,0.0008322,GSO
43450,APSTAR 6C,2018,1436.12,-1.0,+,0.04,Active,1,GSO,PRC,China,Commercial,Communications,Long March,1 43450U 18041A   23028.24354856 -.00000318  00000+0  00000+0 0  9993,2 43450   0.0422 246.6611 0001557  47.3569  54.8834  1.00270115 17449,1.00270115,0.0001557,GEO
43461,GAOFEN 5-01,2018,98.75,805.0,+,98.3,Active,1,LEO,PRC,China,Government,Earth Observation,Long March,1 43461U 18043A   23028.09967398  .00000750  00000+0  17268-3 0  9998,2 43461  98.2954 332.6375 0001400   0.9413 359.1788 14.58188305251392,14.58188305,0.00014,LEO
43463,BANGABANDHUSAT-1,2018,1436.08,3500.0,+,0.01,Active,1,GSO,USA,Bangladesh,Government,Communications,Falcon,1 43463U 18044A   23027.72626178 -.00000364  00000+0  00000+0 0  9992,2 43463   0.0138 115.6462 0002106 193.2164 198.3923  1.00272941 17317,1.00272941,0.0002106,GEO
43476,GRACE-FO 1,2018,94.43,600.0,+,88.99,Active,1,LEO,USA,USA,Government,Earth Observation,Falcon,1 43476U 18047A   23028.11098908  .00003385  00000+0  13441-3 0  9999,2 43476  88.9912   8.0962 0012776 202.1569 157.9128 15.24977013260646,15.24977013,0.0012776,LEO
43477,GRACE-FO 2,2018,94.43,600.0,+,88.99,Active,1,LEO,USA,USA,Government,Earth Observation,Falcon,1 43477U 18047B   23028.11124631  .00003384  00000+0  13435-3 0  9995,2 43477  88.9912   8.0984 0012786 202.2244 157.8452 15.24978426260641,15.24978426,0.0012786,LEO
43478,IRIDIUM 161,2018,99.77,860.0,+,86.45,Active,1,LEO,USA,USA,Commercial/Government,Communications,Falcon,1 43478U 18047C   23027.65348186  .00000454  00000+0  12911-3 0  9990,2 43478  86.4473 245.1813 0002307  84.6088 275.5376 14.43275752246782,14.43275752,0.0002307,LEO
43479,IRIDIUM 152,2018,100.4,860.0,+,86.39,Active,1,LEO,USA,USA,Commercial/Government,Communications,Falcon,1 43479U 18047D   23028.08275085  .00000308  00000+0  10309-3 0  9993,2 43479  86.3944 244.8650 0001742  87.6948 272.4447 14.34218938245327,14.34218938,0.0001742,LEO
43480,IRIDIUM 147,2018,100.4,860.0,+,86.4,Active,1,LEO,USA,USA,Commercial/Government,Communications,Falcon,1 43480U 18047E   23027.67047825  .00000323  00000+0  10814-3 0  9996,2 43480  86.3950 245.0209 0001986  94.1267 266.0156 14.34214929245250,14.34214929,0.0001986,LEO
43481,IRIDIUM 110,2018,100.4,860.0,+,86.4,Active,1,LEO,USA,USA,Commercial/Government,Communications,Falcon,1 43481U 18047F   23028.02566659  .00000326  00000+0  10945-3 0  9996,2 43481  86.3953 244.9318 0002415  85.0343 275.1128 14.34217677245292,14.34217677,0.0002415,LEO
